{"type": "FeatureCollection", "features": [
{"id":"ddc0ebcb-96a3-4219-845e-51a0c2434140","type":"Feature","geometry":{"type":"Point","coordinates":[127.093246,37.3982907]},"properties":{"sources":[{"property":"","dataset":"OpenStreetMap","license":"ODbL-1.0","record_id":"n4590651606@1","update_time":"2017-01-05T11:30:56Z","confidence":null,"between":null,"provider":"osm","resource":"planet","version":"2026-08-05"}],"version":1}},
{"id":"c8020c73-ed9f-49f3-a527-e28012726781","type":"Feature","geometry":{"type":"Point","coordinates":[127.0930556,37.3985462]},"properties":{"sources":[{"property":"","dataset":"OpenStreetMap","license":"ODbL-1.0","record_id":"n4590651608@1","update_time":"2017-01-05T11:30:56Z","confidence":null,"between":null,"provider":"osm","resource":"planet","version":"2026-08-05"}],"version":1}},
{"id":"5d78c942-780f-47e7-82b7-cb7c6488e7e0","type":"Feature","geometry":{"type":"Point","coordinates":[127.0927419,37.3989511]},"properties":{"sources":[{"property":"","dataset":"OpenStreetMap","license":"ODbL-1.0","record_id":"n6662554298@1","update_time":"2019-07-30T20:54:38Z","confidence":null,"between":null,"provider":"osm","resource":"planet","version":"2026-08-05"}],"version":1}},
{"id":"54459af0-b8c3-4a0f-9250-cc51851f86d6","type":"Feature","geometry":{"type":"Point","coordinates":[127.0928126,37.3988627]},"properties":{"sources":[{"property":"","dataset":"OpenStreetMap","license":"ODbL-1.0","record_id":"n4335049362@2","update_time":"2019-07-30T20:54:38Z","confidence":null,"between":null,"provider":"osm","resource":"planet","version":"2026-08-05"}],"version":1}},
{"id":"3daa3adb-5190-4e74-95a3-4497db5cd619","type":"Feature","geometry":{"type":"Point","coordinates":[127.0918639,37.3991495]},"properties":{"sources":[{"property":"","dataset":"OpenStreetMap","license":"ODbL-1.0","record_id":"n4592566538@1","update_time":"2017-01-06T13:10:54Z","confidence":null,"between":null,"provider":"osm","resource":"planet","version":"2026-08-05"}],"version":1}},
{"id":"d46ce5b9-221c-4d33-b326-8cc7c4b9e235","type":"Feature","geometry":{"type":"Point","coordinates":[127.0935541,37.4014098]},"properties":{"sources":[{"property":"","dataset":"OpenStreetMap","license":"ODbL-1.0","record_id":"n11224790375@1","update_time":"2023-09-28T11:44:59Z","confidence":null,"between":null,"provider":"osm","resource":"planet","version":"2026-08-05"}],"version":1}},
{"id":"6fa8d8dd-6716-4e29-87ed-2b056e2ddc97","type":"Feature","geometry":{"type":"Point","coordinates":[127.0933675,37.402059]},"properties":{"sources":[{"property":"","dataset":"OpenStreetMap","license":"ODbL-1.0","record_id":"n2879660765@3","update_time":"2021-09-28T08:03:06Z","confidence":null,"between":null,"provider":"osm","resource":"planet","version":"2026-08-05"}],"version":1}},
{"id":"09595b23-40d6-4118-93e3-50250b49c8ac","type":"Feature","geometry":{"type":"Point","coordinates":[127.0936159,37.4017509]},"properties":{"sources":[{"property":"","dataset":"OpenStreetMap","license":"ODbL-1.0","record_id":"n2879660767@3","update_time":"2021-09-28T08:03:06Z","confidence":null,"between":null,"provider":"osm","resource":"planet","version":"2026-08-05"}],"version":1}},
{"id":"a37edce7-36dc-45fa-84fb-0c654f455399","type":"Feature","geometry":{"type":"Point","coordinates":[127.0933796,37.4016246]},"properties":{"sources":[{"property":"","dataset":"OpenStreetMap","license":"ODbL-1.0","record_id":"n2879660759@2","update_time":"2019-07-30T20:54:38Z","confidence":null,"between":null,"provider":"osm","resource":"planet","version":"2026-08-05"}],"version":1}},
{"id":"66cfbe54-a371-40b8-b4b2-7d872fe53739","type":"Feature","geometry":{"type":"Point","coordinates":[127.0946614,37.400805]},"properties":{"sources":[{"property":"","dataset":"OpenStreetMap","license":"ODbL-1.0","record_id":"n9128891644@1","update_time":"2021-09-28T08:03:02Z","confidence":null,"between":null,"provider":"osm","resource":"planet","version":"2026-08-05"}],"version":1}},
{"id":"e3a9b3d9-1116-4b6c-a355-8fd0313d68d7","type":"Feature","geometry":{"type":"Point","coordinates":[127.0950834,37.4002765]},"properties":{"sources":[{"property":"","dataset":"OpenStreetMap","license":"ODbL-1.0","record_id":"n9128891643@1","update_time":"2021-09-28T08:03:02Z","confidence":null,"between":null,"provider":"osm","resource":"planet","version":"2026-08-05"}],"version":1}},
{"id":"7c2a47cc-bdd3-46c2-a464-1d7f7e4c4a3d","type":"Feature","geometry":{"type":"Point","coordinates":[127.0941297,37.4005094]},"properties":{"sources":[{"property":"","dataset":"OpenStreetMap","license":"ODbL-1.0","record_id":"n4592566546@1","update_time":"2017-01-06T13:10:54Z","confidence":null,"between":null,"provider":"osm","resource":"planet","version":"2026-08-05"}],"version":1}},
{"id":"b89865c1-954e-48ea-9abc-d5b2534eb6c9","type":"Feature","geometry":{"type":"Point","coordinates":[127.0942231,37.4005862]},"properties":{"sources":[{"property":"","dataset":"OpenStreetMap","license":"ODbL-1.0","record_id":"n2879660774@2","update_time":"2019-07-30T20:54:38Z","confidence":null,"between":null,"provider":"osm","resource":"planet","version":"2026-08-05"}],"version":1}},
{"id":"77fc76f1-9ac4-4b34-bc87-d26903de6344","type":"Feature","geometry":{"type":"Point","coordinates":[127.0937267,37.4003929]},"properties":{"sources":[{"property":"","dataset":"OpenStreetMap","license":"ODbL-1.0","record_id":"n4592566548@1","update_time":"2017-01-06T13:10:54Z","confidence":null,"between":null,"provider":"osm","resource":"planet","version":"2026-08-05"}],"version":1}},
{"id":"7fdf8183-159d-4a44-aac0-84bfa1231703","type":"Feature","geometry":{"type":"Point","coordinates":[127.0924304,37.3996055]},"properties":{"sources":[{"property":"","dataset":"OpenStreetMap","license":"ODbL-1.0","record_id":"n4592566539@1","update_time":"2017-01-06T13:10:54Z","confidence":null,"between":null,"provider":"osm","resource":"planet","version":"2026-08-05"}],"version":1}},
{"id":"f7f64556-58c8-4bdd-af4e-afaab7643c5a","type":"Feature","geometry":{"type":"Point","coordinates":[127.0927934,37.3996951]},"properties":{"sources":[{"property":"","dataset":"OpenStreetMap","license":"ODbL-1.0","record_id":"n4592566545@1","update_time":"2017-01-06T13:10:54Z","confidence":null,"between":null,"provider":"osm","resource":"planet","version":"2026-08-05"}],"version":1}},
{"id":"98efcdea-41ea-44ef-a5fa-124abeb5139b","type":"Feature","geometry":{"type":"Point","coordinates":[127.0947224,37.3999693]},"properties":{"sources":[{"property":"","dataset":"OpenStreetMap","license":"ODbL-1.0","record_id":"n6457393294@3","update_time":"2021-07-20T23:13:27Z","confidence":null,"between":null,"provider":"osm","resource":"planet","version":"2026-08-05"}],"version":1}},
{"id":"3c8ea5dc-3c68-45d9-b273-7d8dc6287d5c","type":"Feature","geometry":{"type":"Point","coordinates":[127.0948008,37.3998701]},"properties":{"sources":[{"property":"","dataset":"OpenStreetMap","license":"ODbL-1.0","record_id":"n1836115597@3","update_time":"2019-07-30T20:54:38Z","confidence":null,"between":null,"provider":"osm","resource":"planet","version":"2026-08-05"}],"version":1}},
{"id":"7b59dd62-8194-47dc-8960-68665c57c180","type":"Feature","geometry":{"type":"Point","coordinates":[127.0955139,37.3997897]},"properties":{"sources":[{"property":"","dataset":"OpenStreetMap","license":"ODbL-1.0","record_id":"n2888658745@2","update_time":"2019-07-30T20:54:38Z","confidence":null,"between":null,"provider":"osm","resource":"planet","version":"2026-08-05"}],"version":1}},
{"id":"b94aada5-3dda-4f58-9c6a-6511af8ec3d5","type":"Feature","geometry":{"type":"Point","coordinates":[127.0953804,37.3999707]},"properties":{"sources":[{"property":"","dataset":"OpenStreetMap","license":"ODbL-1.0","record_id":"n9128891726@1","update_time":"2021-09-28T08:03:02Z","confidence":null,"between":null,"provider":"osm","resource":"planet","version":"2026-08-05"}],"version":1}},
{"id":"0c0711a9-2be0-4025-bfaa-c1fd4e78ae10","type":"Feature","geometry":{"type":"Point","coordinates":[127.0960339,37.4000582]},"properties":{"sources":[{"property":"","dataset":"OpenStreetMap","license":"ODbL-1.0","record_id":"n9128891725@1","update_time":"2021-09-28T08:03:02Z","confidence":null,"between":null,"provider":"osm","resource":"planet","version":"2026-08-05"}],"version":1}},
{"id":"306e9ce6-4acf-4228-8d58-12716d38d6b6","type":"Feature","geometry":{"type":"Point","coordinates":[127.0962964,37.4001937]},"properties":{"sources":[{"property":"","dataset":"OpenStreetMap","license":"ODbL-1.0","record_id":"n2888658744@3","update_time":"2021-09-28T08:03:06Z","confidence":null,"between":null,"provider":"osm","resource":"planet","version":"2026-08-05"}],"version":1}},
{"id":"ffb5b355-848d-4239-89be-0dcc86573a7d","type":"Feature","geometry":{"type":"Point","coordinates":[127.0964034,37.4002034]},"properties":{"sources":[{"property":"","dataset":"OpenStreetMap","license":"ODbL-1.0","record_id":"n8921821294@2","update_time":"2021-07-22T08:50:05Z","confidence":null,"between":null,"provider":"osm","resource":"planet","version":"2026-08-05"}],"version":1}},
{"id":"892865c9-3c44-479a-ab02-fe94a883d349","type":"Feature","geometry":{"type":"Point","coordinates":[127.0963345,37.3996682]},"properties":{"sources":[{"property":"","dataset":"OpenStreetMap","license":"ODbL-1.0","record_id":"n9128891724@1","update_time":"2021-09-28T08:03:02Z","confidence":null,"between":null,"provider":"osm","resource":"planet","version":"2026-08-05"}],"version":1}},
{"id":"23d4bb2c-7a37-494c-9f76-84daee5aeadd","type":"Feature","geometry":{"type":"Point","coordinates":[127.0971227,37.3996381]},"properties":{"sources":[{"property":"","dataset":"OpenStreetMap","license":"ODbL-1.0","record_id":"n2879733170@3","update_time":"2021-09-28T08:03:06Z","confidence":null,"between":null,"provider":"osm","resource":"planet","version":"2026-08-05"}],"version":1}},
{"id":"3bcc4fb6-fe89-4255-a86e-16275deb877d","type":"Feature","geometry":{"type":"Point","coordinates":[127.0974575,37.3998161]},"properties":{"sources":[{"property":"","dataset":"OpenStreetMap","license":"ODbL-1.0","record_id":"n2879745041@3","update_time":"2021-09-28T08:03:06Z","confidence":null,"between":null,"provider":"osm","resource":"planet","version":"2026-08-05"}],"version":1}},
{"id":"7947ea2c-5c2d-4d8b-99c3-ad1df377c0d7","type":"Feature","geometry":{"type":"Point","coordinates":[127.0977897,37.3999839]},"properties":{"sources":[{"property":"","dataset":"OpenStreetMap","license":"ODbL-1.0","record_id":"n2879745057@4","update_time":"2021-09-28T08:03:06Z","confidence":null,"between":null,"provider":"osm","resource":"planet","version":"2026-08-05"}],"version":1}},
{"id":"f01586ad-165e-46ab-aced-a81c424b92ee","type":"Feature","geometry":{"type":"Point","coordinates":[127.0966158,37.4003148]},"properties":{"sources":[{"property":"","dataset":"OpenStreetMap","license":"ODbL-1.0","record_id":"n2879733169@3","update_time":"2021-09-28T08:03:06Z","confidence":null,"between":null,"provider":"osm","resource":"planet","version":"2026-08-05"}],"version":1}},
{"id":"217a929a-88e5-486a-895c-02502af07d0f","type":"Feature","geometry":{"type":"Point","coordinates":[127.096923,37.4004797]},"properties":{"sources":[{"property":"","dataset":"OpenStreetMap","license":"ODbL-1.0","record_id":"n2879733168@3","update_time":"2021-09-28T08:03:06Z","confidence":null,"between":null,"provider":"osm","resource":"planet","version":"2026-08-05"}],"version":1}},
{"id":"faf56922-9236-4428-81eb-b0910a3bd347","type":"Feature","geometry":{"type":"Point","coordinates":[127.0975383,37.4003141]},"properties":{"sources":[{"property":"","dataset":"OpenStreetMap","license":"ODbL-1.0","record_id":"n2879745056@3","update_time":"2019-09-07T06:06:51Z","confidence":null,"between":null,"provider":"osm","resource":"planet","version":"2026-08-05"}],"version":1}},
{"id":"3d972249-011f-44ae-b364-e4b0bc7b0794","type":"Feature","geometry":{"type":"Point","coordinates":[127.0972679,37.4006423]},"properties":{"sources":[{"property":"","dataset":"OpenStreetMap","license":"ODbL-1.0","record_id":"n2879733167@3","update_time":"2021-09-28T08:03:06Z","confidence":null,"between":null,"provider":"osm","resource":"planet","version":"2026-08-05"}],"version":1}},
{"id":"5810cdd3-e7ff-45c2-b273-596945a26208","type":"Feature","geometry":{"type":"Point","coordinates":[127.0966693,37.4008063]},"properties":{"sources":[{"property":"","dataset":"OpenStreetMap","license":"ODbL-1.0","record_id":"n5447345151@3","update_time":"2021-09-28T08:03:06Z","confidence":null,"between":null,"provider":"osm","resource":"planet","version":"2026-08-05"}],"version":1}},
{"id":"cab25c39-897b-4ba1-9041-fb892a99d90d","type":"Feature","geometry":{"type":"Point","coordinates":[127.0959698,37.4007443]},"properties":{"sources":[{"property":"","dataset":"OpenStreetMap","license":"ODbL-1.0","record_id":"n4631226162@2","update_time":"2021-07-15T09:02:30Z","confidence":null,"between":null,"provider":"osm","resource":"planet","version":"2026-08-05"}],"version":1}},
{"id":"07f446c3-e1e7-469e-a470-fd00b7d9cbce","type":"Feature","geometry":{"type":"Point","coordinates":[127.0962474,37.4004044]},"properties":{"sources":[{"property":"","dataset":"OpenStreetMap","license":"ODbL-1.0","record_id":"n4631226163@2","update_time":"2021-07-15T09:02:30Z","confidence":null,"between":null,"provider":"osm","resource":"planet","version":"2026-08-05"}],"version":1}},
{"id":"f657aa95-ba96-4c41-9b9d-867e2a0143c3","type":"Feature","geometry":{"type":"Point","coordinates":[127.0960599,37.4004843]},"properties":{"sources":[{"property":"","dataset":"OpenStreetMap","license":"ODbL-1.0","record_id":"n2888658743@3","update_time":"2019-07-30T20:54:38Z","confidence":null,"between":null,"provider":"osm","resource":"planet","version":"2026-08-05"}],"version":1}},
{"id":"61f59a59-ae64-47a6-8b95-c1184629ec8c","type":"Feature","geometry":{"type":"Point","coordinates":[127.0955707,37.4003944]},"properties":{"sources":[{"property":"","dataset":"OpenStreetMap","license":"ODbL-1.0","record_id":"n6662554324@2","update_time":"2021-09-28T08:03:06Z","confidence":null,"between":null,"provider":"osm","resource":"planet","version":"2026-08-05"}],"version":1}},
{"id":"a8c4d97a-81d1-4eac-acd2-f832ddf8f2de","type":"Feature","geometry":{"type":"Point","coordinates":[127.0958814,37.4008528]},"properties":{"sources":[{"property":"","dataset":"OpenStreetMap","license":"ODbL-1.0","record_id":"n8921821293@1","update_time":"2021-07-15T09:02:30Z","confidence":null,"between":null,"provider":"osm","resource":"planet","version":"2026-08-05"}],"version":1}},
{"id":"1d67af1c-0828-4904-b20e-30bfc1162996","type":"Feature","geometry":{"type":"Point","coordinates":[127.0960117,37.4010402]},"properties":{"sources":[{"property":"","dataset":"OpenStreetMap","license":"ODbL-1.0","record_id":"n2879660753@3","update_time":"2021-09-28T08:03:06Z","confidence":null,"between":null,"provider":"osm","resource":"planet","version":"2026-08-05"}],"version":1}},
{"id":"49327dfa-3298-4e76-9994-8fdba8ad5fed","type":"Feature","geometry":{"type":"Point","coordinates":[127.0963453,37.4012087]},"properties":{"sources":[{"property":"","dataset":"OpenStreetMap","license":"ODbL-1.0","record_id":"n2879660751@3","update_time":"2021-09-28T08:03:06Z","confidence":null,"between":null,"provider":"osm","resource":"planet","version":"2026-08-05"}],"version":1}},
{"id":"8c9f9e8e-1d08-48c2-a86e-90ec7a724e99","type":"Feature","geometry":{"type":"Point","coordinates":[127.0954908,37.4017053]},"properties":{"sources":[{"property":"","dataset":"OpenStreetMap","license":"ODbL-1.0","record_id":"n2879660754@3","update_time":"2021-09-28T08:03:06Z","confidence":null,"between":null,"provider":"osm","resource":"planet","version":"2026-08-05"}],"version":1}},
{"id":"a7a7ae4f-438b-4d25-9e4e-311f52e3636d","type":"Feature","geometry":{"type":"Point","coordinates":[127.0958136,37.4018708]},"properties":{"sources":[{"property":"","dataset":"OpenStreetMap","license":"ODbL-1.0","record_id":"n2879660749@3","update_time":"2021-09-28T08:03:06Z","confidence":null,"between":null,"provider":"osm","resource":"planet","version":"2026-08-05"}],"version":1}},
{"id":"cbe1c9f8-d03f-48dd-bc2f-aef9f898a4bc","type":"Feature","geometry":{"type":"Point","coordinates":[127.0960715,37.4015495]},"properties":{"sources":[{"property":"","dataset":"OpenStreetMap","license":"ODbL-1.0","record_id":"n2879660750@3","update_time":"2021-09-28T08:03:06Z","confidence":null,"between":null,"provider":"osm","resource":"planet","version":"2026-08-05"}],"version":1}},
{"id":"e6e38f65-b5af-439b-9a06-931b3a0d3ccf","type":"Feature","geometry":{"type":"Point","coordinates":[127.0975002,37.4018079]},"properties":{"sources":[{"property":"","dataset":"OpenStreetMap","license":"ODbL-1.0","record_id":"n2879207525@3","update_time":"2019-07-30T20:54:38Z","confidence":null,"between":null,"provider":"osm","resource":"planet","version":"2026-08-05"}],"version":1}},
{"id":"3855cc4e-c880-4fb7-8847-4def83149de6","type":"Feature","geometry":{"type":"Point","coordinates":[127.097671,37.4015818]},"properties":{"sources":[{"property":"","dataset":"OpenStreetMap","license":"ODbL-1.0","record_id":"n8921821288@1","update_time":"2021-07-15T09:02:30Z","confidence":null,"between":null,"provider":"osm","resource":"planet","version":"2026-08-05"}],"version":1}},
{"id":"94333875-1b6b-4b20-9722-1de4fb55bfe3","type":"Feature","geometry":{"type":"Point","coordinates":[127.0977394,37.401491300000004]},"properties":{"sources":[{"property":"","dataset":"OpenStreetMap","license":"ODbL-1.0","record_id":"n6662554313@1","update_time":"2019-07-30T20:54:38Z","confidence":null,"between":null,"provider":"osm","resource":"planet","version":"2026-08-05"}],"version":1}},
{"id":"e74ac17c-a7b8-4fb9-a043-d7c755dc21e8","type":"Feature","geometry":{"type":"Point","coordinates":[127.0978223,37.4013895]},"properties":{"sources":[{"property":"","dataset":"OpenStreetMap","license":"ODbL-1.0","record_id":"n2888658740@3","update_time":"2019-07-30T20:54:38Z","confidence":null,"between":null,"provider":"osm","resource":"planet","version":"2026-08-05"}],"version":1}},
{"id":"a297007c-37d6-4053-8fe7-1c5c2e332cbd","type":"Feature","geometry":{"type":"Point","coordinates":[127.0965736,37.4009128]},"properties":{"sources":[{"property":"","dataset":"OpenStreetMap","license":"ODbL-1.0","record_id":"n6662554323@2","update_time":"2021-09-28T08:03:06Z","confidence":null,"between":null,"provider":"osm","resource":"planet","version":"2026-08-05"}],"version":1}},
{"id":"a1592e2d-de43-43b5-869a-40618cd23e8f","type":"Feature","geometry":{"type":"Point","coordinates":[127.0958012,37.3994069]},"properties":{"sources":[{"property":"","dataset":"OpenStreetMap","license":"ODbL-1.0","record_id":"n2888658746@4","update_time":"2021-09-28T08:03:06Z","confidence":null,"between":null,"provider":"osm","resource":"planet","version":"2026-08-05"}],"version":1}},
{"id":"3dad9180-bdc2-481b-b176-3f6c86cb9702","type":"Feature","geometry":{"type":"Point","coordinates":[127.0953193,37.3991775]},"properties":{"sources":[{"property":"","dataset":"OpenStreetMap","license":"ODbL-1.0","record_id":"n4592548391@2","update_time":"2021-09-28T08:03:06Z","confidence":null,"between":null,"provider":"osm","resource":"planet","version":"2026-08-05"}],"version":1}},
{"id":"bf3378b2-851e-4f03-8e92-03bec68b8b5d","type":"Feature","geometry":{"type":"Point","coordinates":[127.0967308,37.3984275]},"properties":{"sources":[{"property":"","dataset":"OpenStreetMap","license":"ODbL-1.0","record_id":"n2879734104@4","update_time":"2021-09-28T08:03:06Z","confidence":null,"between":null,"provider":"osm","resource":"planet","version":"2026-08-05"}],"version":1}},
{"id":"17ef8fb3-7265-4693-8873-c3de9281d419","type":"Feature","geometry":{"type":"Point","coordinates":[127.09748,37.3988144]},"properties":{"sources":[{"property":"","dataset":"OpenStreetMap","license":"ODbL-1.0","record_id":"n4590176880@3","update_time":"2021-09-28T08:03:06Z","confidence":null,"between":null,"provider":"osm","resource":"planet","version":"2026-08-05"}],"version":1}},
{"id":"a54a799c-272a-4e7e-bcf2-a75ce1ce5ce0","type":"Feature","geometry":{"type":"Point","coordinates":[127.097698,37.3989276]},"properties":{"sources":[{"property":"","dataset":"OpenStreetMap","license":"ODbL-1.0","record_id":"n2879734106@3","update_time":"2021-09-28T08:03:06Z","confidence":null,"between":null,"provider":"osm","resource":"planet","version":"2026-08-05"}],"version":1}},
{"id":"deac1d18-33c4-493d-97e2-14bf470ef190","type":"Feature","geometry":{"type":"Point","coordinates":[127.0963223,37.3982312]},"properties":{"sources":[{"property":"","dataset":"OpenStreetMap","license":"ODbL-1.0","record_id":"n2879734103@5","update_time":"2021-09-28T08:03:06Z","confidence":null,"between":null,"provider":"osm","resource":"planet","version":"2026-08-05"}],"version":1}},
{"id":"251f075f-0e8a-4881-a38d-c6f8a7eabbf6","type":"Feature","geometry":{"type":"Point","coordinates":[127.0961827,37.3981789]},"properties":{"sources":[{"property":"","dataset":"OpenStreetMap","license":"ODbL-1.0","record_id":"n4592548360@1","update_time":"2017-01-06T13:03:43Z","confidence":null,"between":null,"provider":"osm","resource":"planet","version":"2026-08-05"}],"version":1}},
{"id":"c0b744c1-036b-4bb7-802d-1c2cdba64d43","type":"Feature","geometry":{"type":"Point","coordinates":[127.0979396,37.3982377]},"properties":{"sources":[{"property":"","dataset":"OpenStreetMap","license":"ODbL-1.0","record_id":"n4590176879@6","update_time":"2023-11-01T03:26:25Z","confidence":null,"between":null,"provider":"osm","resource":"planet","version":"2026-08-05"}],"version":1}},
{"id":"0fd34b5a-566d-425d-ace5-542c9d36e644","type":"Feature","geometry":{"type":"Point","coordinates":[127.0952147,37.4058872]},"properties":{"sources":[{"property":"","dataset":"OpenStreetMap","license":"ODbL-1.0","record_id":"n8637733020@1","update_time":"2021-04-17T11:25:47Z","confidence":null,"between":null,"provider":"osm","resource":"planet","version":"2026-08-05"}],"version":1}},
{"id":"37bd68be-44b6-4e0c-93f2-3f5380f52b45","type":"Feature","geometry":{"type":"Point","coordinates":[127.0975091,37.4057386]},"properties":{"sources":[{"property":"","dataset":"OpenStreetMap","license":"ODbL-1.0","record_id":"n4505736319@2","update_time":"2019-05-24T09:09:58Z","confidence":null,"between":null,"provider":"osm","resource":"planet","version":"2026-08-05"}],"version":1}},
{"id":"12df9e2e-b7bb-4341-add2-5afb7a7636a4","type":"Feature","geometry":{"type":"Point","coordinates":[127.0954078,37.4056349]},"properties":{"sources":[{"property":"","dataset":"OpenStreetMap","license":"ODbL-1.0","record_id":"n8637733019@1","update_time":"2021-04-17T11:25:47Z","confidence":null,"between":null,"provider":"osm","resource":"planet","version":"2026-08-05"}],"version":1}},
{"id":"454a6433-e573-4e2a-8737-252795b3a17b","type":"Feature","geometry":{"type":"Point","coordinates":[127.0953372,37.405502]},"properties":{"sources":[{"property":"","dataset":"OpenStreetMap","license":"ODbL-1.0","record_id":"n8637733021@1","update_time":"2021-04-17T11:25:47Z","confidence":null,"between":null,"provider":"osm","resource":"planet","version":"2026-08-05"}],"version":1}},
{"id":"3b922fa6-b061-463f-9169-2f8122ebd3ed","type":"Feature","geometry":{"type":"Point","coordinates":[127.0968603,37.4049779]},"properties":{"sources":[{"property":"","dataset":"OpenStreetMap","license":"ODbL-1.0","record_id":"n734789596@7","update_time":"2025-11-24T05:52:23Z","confidence":null,"between":null,"provider":"osm","resource":"planet","version":"2026-08-05"}],"version":1}},
{"id":"73c7a5a6-2e84-44c6-832a-58fed90273db","type":"Feature","geometry":{"type":"Point","coordinates":[127.0974735,37.4032863]},"properties":{"sources":[{"property":"","dataset":"OpenStreetMap","license":"ODbL-1.0","record_id":"n1668416669@6","update_time":"2025-11-24T05:52:23Z","confidence":null,"between":null,"provider":"osm","resource":"planet","version":"2026-08-05"}],"version":3}},
{"id":"e3ce9f5c-d1ee-48e7-8b1c-ac60e268e490","type":"Feature","geometry":{"type":"Point","coordinates":[127.0973453,37.4028256]},"properties":{"sources":[{"property":"","dataset":"OpenStreetMap","license":"ODbL-1.0","record_id":"n1668416655@3","update_time":"2025-11-24T05:52:23Z","confidence":null,"between":null,"provider":"osm","resource":"planet","version":"2026-08-05"}],"version":3}},
{"id":"a8bd0116-fee2-4659-b271-45df7cac9a9c","type":"Feature","geometry":{"type":"Point","coordinates":[127.0971822,37.4021049]},"properties":{"sources":[{"property":"","dataset":"OpenStreetMap","license":"ODbL-1.0","record_id":"n2879207524@3","update_time":"2019-07-30T20:54:38Z","confidence":null,"between":null,"provider":"osm","resource":"planet","version":"2026-08-05"}],"version":1}},
{"id":"4b69c99a-6eb2-46e4-bbc2-1483921cf7d5","type":"Feature","geometry":{"type":"Point","coordinates":[127.0968861,37.4024049]},"properties":{"sources":[{"property":"","dataset":"OpenStreetMap","license":"ODbL-1.0","record_id":"n2879207523@2","update_time":"2017-01-04T14:50:40Z","confidence":null,"between":null,"provider":"osm","resource":"planet","version":"2026-08-05"}],"version":1}},
{"id":"a237fe16-1401-4d61-9020-267f6d169007","type":"Feature","geometry":{"type":"Point","coordinates":[127.0965623,37.4027104]},"properties":{"sources":[{"property":"","dataset":"OpenStreetMap","license":"ODbL-1.0","record_id":"n2879207522@3","update_time":"2021-09-28T08:03:06Z","confidence":null,"between":null,"provider":"osm","resource":"planet","version":"2026-08-05"}],"version":1}},
{"id":"d34c9e43-3e4b-49a3-8f1a-84eee420423e","type":"Feature","geometry":{"type":"Point","coordinates":[127.0955492,37.4022055]},"properties":{"sources":[{"property":"","dataset":"OpenStreetMap","license":"ODbL-1.0","record_id":"n2879660748@3","update_time":"2021-09-28T08:03:06Z","confidence":null,"between":null,"provider":"osm","resource":"planet","version":"2026-08-05"}],"version":1}},
{"id":"6faad13e-cc1d-424a-ba72-557de2832a03","type":"Feature","geometry":{"type":"Point","coordinates":[127.0954008,37.4023904]},"properties":{"sources":[{"property":"","dataset":"OpenStreetMap","license":"ODbL-1.0","record_id":"n9128891727@1","update_time":"2021-09-28T08:03:02Z","confidence":null,"between":null,"provider":"osm","resource":"planet","version":"2026-08-05"}],"version":1}},
{"id":"e15877be-cb3f-43a7-b760-9dabb2ba1f2e","type":"Feature","geometry":{"type":"Point","coordinates":[127.0952532,37.4025742]},"properties":{"sources":[{"property":"","dataset":"OpenStreetMap","license":"ODbL-1.0","record_id":"n2879660747@3","update_time":"2021-09-28T08:03:06Z","confidence":null,"between":null,"provider":"osm","resource":"planet","version":"2026-08-05"}],"version":1}},
{"id":"d1267e25-6556-4edb-bef1-4cd4002a0c83","type":"Feature","geometry":{"type":"Point","coordinates":[127.0963535,37.402874]},"properties":{"sources":[{"property":"","dataset":"OpenStreetMap","license":"ODbL-1.0","record_id":"n4589215898@2","update_time":"2021-09-28T08:03:06Z","confidence":null,"between":null,"provider":"osm","resource":"planet","version":"2026-08-05"}],"version":1}},
{"id":"cb94128f-f118-421e-b7a2-b608917e5397","type":"Feature","geometry":{"type":"Point","coordinates":[127.0958376,37.4031171]},"properties":{"sources":[{"property":"","dataset":"OpenStreetMap","license":"ODbL-1.0","record_id":"n2879207520@3","update_time":"2021-09-28T08:03:06Z","confidence":null,"between":null,"provider":"osm","resource":"planet","version":"2026-08-05"}],"version":1}},
{"id":"4b2ff739-a4b2-4d27-b94b-2f046eff5471","type":"Feature","geometry":{"type":"Point","coordinates":[127.0957915,37.4035488]},"properties":{"sources":[{"property":"","dataset":"OpenStreetMap","license":"ODbL-1.0","record_id":"n1668416693@3","update_time":"2025-11-24T05:52:23Z","confidence":null,"between":null,"provider":"osm","resource":"planet","version":"2026-08-05"}],"version":3}},
{"id":"02e53c63-1c71-46bb-9edb-2c3f8775cbb3","type":"Feature","geometry":{"type":"Point","coordinates":[127.0977287,37.4039334]},"properties":{"sources":[{"property":"","dataset":"OpenStreetMap","license":"ODbL-1.0","record_id":"n6497244887@1","update_time":"2019-05-24T09:09:57Z","confidence":null,"between":null,"provider":"osm","resource":"planet","version":"2026-08-05"}],"version":1}},
{"id":"835c5b57-919d-49b9-9bcd-487c3b4eb9eb","type":"Feature","geometry":{"type":"Point","coordinates":[127.0965164,37.403848]},"properties":{"sources":[{"property":"","dataset":"OpenStreetMap","license":"ODbL-1.0","record_id":"n2820817913@2","update_time":"2025-11-24T05:52:23Z","confidence":null,"between":null,"provider":"osm","resource":"planet","version":"2026-08-05"}],"version":3}},
{"id":"15e7ddf7-5c23-49bc-98ca-11629dbb2e48","type":"Feature","geometry":{"type":"Point","coordinates":[127.0929814,37.4035677]},"properties":{"sources":[{"property":"","dataset":"OpenStreetMap","license":"ODbL-1.0","record_id":"n2879660773@4","update_time":"2021-09-28T08:03:06Z","confidence":null,"between":null,"provider":"osm","resource":"planet","version":"2026-08-05"}],"version":1}},
{"id":"7c0aacf6-e5e2-489c-861b-878db625742e","type":"Feature","geometry":{"type":"Point","coordinates":[127.0934236,37.4033797]},"properties":{"sources":[{"property":"","dataset":"OpenStreetMap","license":"ODbL-1.0","record_id":"n2879207516@3","update_time":"2021-09-28T08:03:06Z","confidence":null,"between":null,"provider":"osm","resource":"planet","version":"2026-08-05"}],"version":1}},
{"id":"f5c87569-9f9e-4bd5-abe4-dfb0d725cdf6","type":"Feature","geometry":{"type":"Point","coordinates":[127.0946019,37.403123]},"properties":{"sources":[{"property":"","dataset":"OpenStreetMap","license":"ODbL-1.0","record_id":"n4589215915@2","update_time":"2021-09-28T08:03:06Z","confidence":null,"between":null,"provider":"osm","resource":"planet","version":"2026-08-05"}],"version":1}},
{"id":"d080edf6-b631-4abf-b11b-344ac5b4b0cf","type":"Feature","geometry":{"type":"Point","coordinates":[127.0938898,37.4032441]},"properties":{"sources":[{"property":"","dataset":"OpenStreetMap","license":"ODbL-1.0","record_id":"n4589215920@1","update_time":"2017-01-04T14:50:40Z","confidence":null,"between":null,"provider":"osm","resource":"planet","version":"2026-08-05"}],"version":1}},
{"id":"115063c8-f7ee-493a-a5a3-69dcd25d1c94","type":"Feature","geometry":{"type":"Point","coordinates":[127.0937738,37.4029023]},"properties":{"sources":[{"property":"","dataset":"OpenStreetMap","license":"ODbL-1.0","record_id":"n2879660743@3","update_time":"2021-09-28T08:03:06Z","confidence":null,"between":null,"provider":"osm","resource":"planet","version":"2026-08-05"}],"version":1}},
{"id":"dc093e3b-9f07-4af8-bb3d-4f140a05a9f6","type":"Feature","geometry":{"type":"Point","coordinates":[127.0945531,37.4027934]},"properties":{"sources":[{"property":"","dataset":"OpenStreetMap","license":"ODbL-1.0","record_id":"n9128891728@1","update_time":"2021-09-28T08:03:02Z","confidence":null,"between":null,"provider":"osm","resource":"planet","version":"2026-08-05"}],"version":1}},
{"id":"000a62ee-cdca-409f-87b8-64ce61017455","type":"Feature","geometry":{"type":"Point","coordinates":[127.0949196,37.4024027]},"properties":{"sources":[{"property":"","dataset":"OpenStreetMap","license":"ODbL-1.0","record_id":"n2879660755@3","update_time":"2021-09-28T08:03:06Z","confidence":null,"between":null,"provider":"osm","resource":"planet","version":"2026-08-05"}],"version":1}},
{"id":"2fac7893-e2a4-415b-b5e4-da2dfea10be3","type":"Feature","geometry":{"type":"Point","coordinates":[127.094482,37.4021811]},"properties":{"sources":[{"property":"","dataset":"OpenStreetMap","license":"ODbL-1.0","record_id":"n2879660758@2","update_time":"2021-09-28T08:03:06Z","confidence":null,"between":null,"provider":"osm","resource":"planet","version":"2026-08-05"}],"version":1}},
{"id":"b37cbb2e-f756-4f9e-ba38-5ebc7a0d0dcd","type":"Feature","geometry":{"type":"Point","coordinates":[127.094727,37.4023052]},"properties":{"sources":[{"property":"","dataset":"OpenStreetMap","license":"ODbL-1.0","record_id":"n9128891731@1","update_time":"2021-09-28T08:03:02Z","confidence":null,"between":null,"provider":"osm","resource":"planet","version":"2026-08-05"}],"version":1}},
{"id":"bae93a9f-d7dd-491a-82e0-accd92ae27da","type":"Feature","geometry":{"type":"Point","coordinates":[127.0940017,37.4023774]},"properties":{"sources":[{"property":"","dataset":"OpenStreetMap","license":"ODbL-1.0","record_id":"n2879660761@2","update_time":"2021-09-28T08:03:06Z","confidence":null,"between":null,"provider":"osm","resource":"planet","version":"2026-08-05"}],"version":1}},
{"id":"e6796040-0965-461e-a02c-22788e7587f8","type":"Feature","geometry":{"type":"Point","coordinates":[127.0936948,37.4026735]},"properties":{"sources":[{"property":"","dataset":"OpenStreetMap","license":"ODbL-1.0","record_id":"n9128891729@1","update_time":"2021-09-28T08:03:02Z","confidence":null,"between":null,"provider":"osm","resource":"planet","version":"2026-08-05"}],"version":1}},
{"id":"c28e3c34-9d77-4dc3-98aa-435f8721cdeb","type":"Feature","geometry":{"type":"Point","coordinates":[127.0936221,37.402463]},"properties":{"sources":[{"property":"","dataset":"OpenStreetMap","license":"ODbL-1.0","record_id":"n9128891739@1","update_time":"2021-09-28T08:03:02Z","confidence":null,"between":null,"provider":"osm","resource":"planet","version":"2026-08-05"}],"version":1}},
{"id":"dfaf690a-b5c0-4d01-81de-6fae24a2ef22","type":"Feature","geometry":{"type":"Point","coordinates":[127.0928203,37.4023272]},"properties":{"sources":[{"property":"","dataset":"OpenStreetMap","license":"ODbL-1.0","record_id":"n2879660763@4","update_time":"2021-09-28T08:03:06Z","confidence":null,"between":null,"provider":"osm","resource":"planet","version":"2026-08-05"}],"version":1}},
{"id":"e1637938-03ae-4012-a864-288252abf90c","type":"Feature","geometry":{"type":"Point","coordinates":[127.0926668,37.4025157]},"properties":{"sources":[{"property":"","dataset":"OpenStreetMap","license":"ODbL-1.0","record_id":"n9128891738@1","update_time":"2021-09-28T08:03:02Z","confidence":null,"between":null,"provider":"osm","resource":"planet","version":"2026-08-05"}],"version":1}},
{"id":"dc1564e0-9f03-4753-b1e6-61b5e4b37d2a","type":"Feature","geometry":{"type":"Point","coordinates":[127.0930602,37.4024402]},"properties":{"sources":[{"property":"","dataset":"OpenStreetMap","license":"ODbL-1.0","record_id":"n2879660766@3","update_time":"2021-09-28T08:03:06Z","confidence":null,"between":null,"provider":"osm","resource":"planet","version":"2026-08-05"}],"version":1}},
{"id":"fa04c5ef-fdb5-4a8c-ac2e-0033595f5b58","type":"Feature","geometry":{"type":"Point","coordinates":[127.0925149,37.4027022]},"properties":{"sources":[{"property":"","dataset":"OpenStreetMap","license":"ODbL-1.0","record_id":"n2879660739@3","update_time":"2021-09-28T08:03:06Z","confidence":null,"between":null,"provider":"osm","resource":"planet","version":"2026-08-05"}],"version":1}},
{"id":"73c1b726-b957-458a-a226-aaf55bc9f31e","type":"Feature","geometry":{"type":"Point","coordinates":[127.0927543,37.4028246]},"properties":{"sources":[{"property":"","dataset":"OpenStreetMap","license":"ODbL-1.0","record_id":"n2879660770@2","update_time":"2021-09-28T08:03:06Z","confidence":null,"between":null,"provider":"osm","resource":"planet","version":"2026-08-05"}],"version":1}},
{"id":"c2700ff6-951c-4d70-93bd-5ff20800e2ae","type":"Feature","geometry":{"type":"Point","coordinates":[127.0932876,37.4029932]},"properties":{"sources":[{"property":"","dataset":"OpenStreetMap","license":"ODbL-1.0","record_id":"n2879660742@3","update_time":"2021-09-28T08:03:06Z","confidence":null,"between":null,"provider":"osm","resource":"planet","version":"2026-08-05"}],"version":1}},
{"id":"7a88ab5e-b30e-4355-97d8-6f9acd5a49a0","type":"Feature","geometry":{"type":"Point","coordinates":[127.0924836,37.4031619]},"properties":{"sources":[{"property":"","dataset":"OpenStreetMap","license":"ODbL-1.0","record_id":"n2879660769@3","update_time":"2021-09-28T08:03:06Z","confidence":null,"between":null,"provider":"osm","resource":"planet","version":"2026-08-05"}],"version":1}},
{"id":"db8431a5-1939-4dd8-9aac-48046739b3b4","type":"Feature","geometry":{"type":"Point","coordinates":[127.0921783,37.4024791]},"properties":{"sources":[{"property":"","dataset":"OpenStreetMap","license":"ODbL-1.0","record_id":"n4592578046@1","update_time":"2017-01-06T13:18:51Z","confidence":null,"between":null,"provider":"osm","resource":"planet","version":"2026-08-05"}],"version":1}},
{"id":"38259593-1a77-4e35-9059-d3631edff30d","type":"Feature","geometry":{"type":"Point","coordinates":[127.0922649,37.4023787]},"properties":{"sources":[{"property":"","dataset":"OpenStreetMap","license":"ODbL-1.0","record_id":"n4592578047@1","update_time":"2017-01-06T13:18:51Z","confidence":null,"between":null,"provider":"osm","resource":"planet","version":"2026-08-05"}],"version":1}},
{"id":"a7b74661-b9c6-417e-a2e3-8afa4fc4f22a","type":"Feature","geometry":{"type":"Point","coordinates":[127.0916721,37.402481]},"properties":{"sources":[{"property":"","dataset":"OpenStreetMap","license":"ODbL-1.0","record_id":"n4592578035@1","update_time":"2017-01-06T13:18:51Z","confidence":null,"between":null,"provider":"osm","resource":"planet","version":"2026-08-05"}],"version":1}},
{"id":"3c3135ca-481a-4512-9019-4ce8bfc1632d","type":"Feature","geometry":{"type":"Point","coordinates":[127.0917311,37.4026195]},"properties":{"sources":[{"property":"","dataset":"OpenStreetMap","license":"ODbL-1.0","record_id":"n4592578049@1","update_time":"2017-01-06T13:18:51Z","confidence":null,"between":null,"provider":"osm","resource":"planet","version":"2026-08-05"}],"version":1}},
{"id":"333ed3f5-cc93-43f1-b6b1-a2c035257bb0","type":"Feature","geometry":{"type":"Point","coordinates":[127.0909398,37.402562]},"properties":{"sources":[{"property":"","dataset":"OpenStreetMap","license":"ODbL-1.0","record_id":"n4592578028@1","update_time":"2017-01-06T13:18:51Z","confidence":null,"between":null,"provider":"osm","resource":"planet","version":"2026-08-05"}],"version":1}},
{"id":"3ad41684-1df7-40cd-9fca-3f0e9c3c195f","type":"Feature","geometry":{"type":"Point","coordinates":[127.0908513,37.4023808]},"properties":{"sources":[{"property":"","dataset":"OpenStreetMap","license":"ODbL-1.0","record_id":"n4592578051@1","update_time":"2017-01-06T13:18:51Z","confidence":null,"between":null,"provider":"osm","resource":"planet","version":"2026-08-05"}],"version":1}},
{"id":"b0298e98-5e3b-49ae-acf7-008f600c8cad","type":"Feature","geometry":{"type":"Point","coordinates":[127.0903042,37.4024107]},"properties":{"sources":[{"property":"","dataset":"OpenStreetMap","license":"ODbL-1.0","record_id":"n4592578025@1","update_time":"2017-01-06T13:18:51Z","confidence":null,"between":null,"provider":"osm","resource":"planet","version":"2026-08-05"}],"version":1}},
{"id":"f417e1c1-d39b-430f-9abf-291a56d45ddd","type":"Feature","geometry":{"type":"Point","coordinates":[127.091865,37.4035068]},"properties":{"sources":[{"property":"","dataset":"OpenStreetMap","license":"ODbL-1.0","record_id":"n2879207512@4","update_time":"2021-09-28T08:03:06Z","confidence":null,"between":null,"provider":"osm","resource":"planet","version":"2026-08-05"}],"version":1}},
{"id":"22f9e97f-07fe-49af-821d-8cecc81da8f9","type":"Feature","geometry":{"type":"Point","coordinates":[127.092051,37.403701]},"properties":{"sources":[{"property":"","dataset":"OpenStreetMap","license":"ODbL-1.0","record_id":"n2879207513@4","update_time":"2021-09-28T08:03:06Z","confidence":null,"between":null,"provider":"osm","resource":"planet","version":"2026-08-05"}],"version":1}},
{"id":"d430af05-3fd1-401d-ac5e-36fe7585a500","type":"Feature","geometry":{"type":"Point","coordinates":[127.0897631,37.4042473]},"properties":{"sources":[{"property":"","dataset":"OpenStreetMap","license":"ODbL-1.0","record_id":"n734789387@2","update_time":"2012-03-10T09:41:36Z","confidence":null,"between":null,"provider":"osm","resource":"planet","version":"2026-08-05"}],"version":1}},
{"id":"f0f5e3f2-a5e9-4959-8032-012b8d195a14","type":"Feature","geometry":{"type":"Point","coordinates":[127.0937036,37.4051417]},"properties":{"sources":[{"property":"","dataset":"OpenStreetMap","license":"ODbL-1.0","record_id":"n8637697206@1","update_time":"2021-04-17T11:25:47Z","confidence":null,"between":null,"provider":"osm","resource":"planet","version":"2026-08-05"}],"version":1}},
{"id":"1b3a14bd-c8b6-484a-b585-64866d275a4a","type":"Feature","geometry":{"type":"Point","coordinates":[127.09366,37.4046846]},"properties":{"sources":[{"property":"","dataset":"OpenStreetMap","license":"ODbL-1.0","record_id":"n8637697209@1","update_time":"2021-04-17T11:25:47Z","confidence":null,"between":null,"provider":"osm","resource":"planet","version":"2026-08-05"}],"version":1}},
{"id":"92da5451-b482-4caf-8c01-58126b9f9a72","type":"Feature","geometry":{"type":"Point","coordinates":[127.0948431,37.4054244]},"properties":{"sources":[{"property":"","dataset":"OpenStreetMap","license":"ODbL-1.0","record_id":"n13327541351@1","update_time":"2025-11-24T05:52:23Z","confidence":null,"between":null,"provider":"osm","resource":"planet","version":"2026-08-05"}],"version":2}},
{"id":"ba72bae8-3b36-41d0-9455-0dcf5f771971","type":"Feature","geometry":{"type":"Point","coordinates":[127.0940057,37.4066123]},"properties":{"sources":[{"property":"","dataset":"OpenStreetMap","license":"ODbL-1.0","record_id":"n734789416@3","update_time":"2014-04-27T14:30:11Z","confidence":null,"between":null,"provider":"osm","resource":"planet","version":"2026-08-05"}],"version":1}},
{"id":"d7acf797-ea8e-4db5-8a6e-b09d3531e423","type":"Feature","geometry":{"type":"Point","coordinates":[127.0902823,37.4059914]},"properties":{"sources":[{"property":"","dataset":"OpenStreetMap","license":"ODbL-1.0","record_id":"n9327113453@2","update_time":"2026-06-20T00:16:43Z","confidence":null,"between":null,"provider":"osm","resource":"planet","version":"2026-08-05"}],"version":2}},
{"id":"a3eed3cd-a5c0-4e7d-b6cf-abd815166d96","type":"Feature","geometry":{"type":"Point","coordinates":[127.0899194,37.4065275]},"properties":{"sources":[{"property":"","dataset":"OpenStreetMap","license":"ODbL-1.0","record_id":"n9327113437@1","update_time":"2021-12-10T12:11:22Z","confidence":null,"between":null,"provider":"osm","resource":"planet","version":"2026-08-05"}],"version":1}},
{"id":"c360b193-5fb8-40d6-bfc5-b1329c4e42b9","type":"Feature","geometry":{"type":"Point","coordinates":[127.0894914,37.4070389]},"properties":{"sources":[{"property":"","dataset":"OpenStreetMap","license":"ODbL-1.0","record_id":"n9327113450@1","update_time":"2021-12-10T12:11:22Z","confidence":null,"between":null,"provider":"osm","resource":"planet","version":"2026-08-05"}],"version":1}},
{"id":"29ee6ef2-072c-49f7-8b8b-87df6ff80cc2","type":"Feature","geometry":{"type":"Point","coordinates":[127.0877918,37.406416]},"properties":{"sources":[{"property":"","dataset":"OpenStreetMap","license":"ODbL-1.0","record_id":"n9327113421@2","update_time":"2026-06-20T00:16:43Z","confidence":null,"between":null,"provider":"osm","resource":"planet","version":"2026-08-05"}],"version":1}},
{"id":"c0d84028-d8bf-4a61-bfe2-83bdc26fb396","type":"Feature","geometry":{"type":"Point","coordinates":[127.0879363,37.4059122]},"properties":{"sources":[{"property":"","dataset":"OpenStreetMap","license":"ODbL-1.0","record_id":"n13953139484@1","update_time":"2026-06-20T00:16:43Z","confidence":null,"between":null,"provider":"osm","resource":"planet","version":"2026-08-05"}],"version":1}},
{"id":"4c6e984e-415e-492c-8bb1-e025dfc47465","type":"Feature","geometry":{"type":"Point","coordinates":[127.0881205,37.4053379]},"properties":{"sources":[{"property":"","dataset":"OpenStreetMap","license":"ODbL-1.0","record_id":"n9327085896@2","update_time":"2026-06-20T00:16:43Z","confidence":null,"between":null,"provider":"osm","resource":"planet","version":"2026-08-05"}],"version":1}},
{"id":"d6b322d8-f0ef-495e-b5b7-e53583e176dc","type":"Feature","geometry":{"type":"Point","coordinates":[127.0859701,37.4056335]},"properties":{"sources":[{"property":"","dataset":"OpenStreetMap","license":"ODbL-1.0","record_id":"n13953139474@1","update_time":"2026-06-20T00:16:43Z","confidence":null,"between":null,"provider":"osm","resource":"planet","version":"2026-08-05"}],"version":1}},
{"id":"2563a8b1-e48a-4b1d-86d1-846facaecfc1","type":"Feature","geometry":{"type":"Point","coordinates":[127.085974,37.4049937]},"properties":{"sources":[{"property":"","dataset":"OpenStreetMap","license":"ODbL-1.0","record_id":"n9327085898@1","update_time":"2021-12-10T12:11:22Z","confidence":null,"between":null,"provider":"osm","resource":"planet","version":"2026-08-05"}],"version":1}},
{"id":"f78a812b-2d2e-47eb-9c91-be47a40731e3","type":"Feature","geometry":{"type":"Point","coordinates":[127.0858988,37.4062959]},"properties":{"sources":[{"property":"","dataset":"OpenStreetMap","license":"ODbL-1.0","record_id":"n9327085903@1","update_time":"2021-12-10T12:11:22Z","confidence":null,"between":null,"provider":"osm","resource":"planet","version":"2026-08-05"}],"version":1}},
{"id":"93e63521-3277-4218-826c-348b8f13ae17","type":"Feature","geometry":{"type":"Point","coordinates":[127.0807919,37.4064338]},"properties":{"sources":[{"property":"","dataset":"OpenStreetMap","license":"ODbL-1.0","record_id":"n13243385310@1","update_time":"2025-10-19T14:41:43Z","confidence":null,"between":null,"provider":"osm","resource":"planet","version":"2026-08-05"}],"version":1}},
{"id":"1f160e09-0339-4328-b392-14cb592a0e53","type":"Feature","geometry":{"type":"Point","coordinates":[127.0808613,37.4064346]},"properties":{"sources":[{"property":"","dataset":"OpenStreetMap","license":"ODbL-1.0","record_id":"n12872462352@2","update_time":"2025-07-20T12:48:32Z","confidence":null,"between":null,"provider":"osm","resource":"planet","version":"2026-08-05"}],"version":2}},
{"id":"6443fdb6-2263-43b7-95e4-2af7b07e7fd9","type":"Feature","geometry":{"type":"Point","coordinates":[127.0805847,37.4057584]},"properties":{"sources":[{"property":"","dataset":"OpenStreetMap","license":"ODbL-1.0","record_id":"n12833786383@2","update_time":"2026-06-20T00:16:43Z","confidence":null,"between":null,"provider":"osm","resource":"planet","version":"2026-08-05"}],"version":1}},
{"id":"a6aa5e09-abad-44a3-bf38-07af6b517a0c","type":"Feature","geometry":{"type":"Point","coordinates":[127.0840863,37.4051817]},"properties":{"sources":[{"property":"","dataset":"OpenStreetMap","license":"ODbL-1.0","record_id":"n13801104265@1","update_time":"2026-05-06T12:12:03Z","confidence":null,"between":null,"provider":"osm","resource":"planet","version":"2026-08-05"}],"version":1}},
{"id":"e8c4672d-5990-40ac-9412-0570d539fef2","type":"Feature","geometry":{"type":"Point","coordinates":[127.0836901,37.4035198]},"properties":{"sources":[{"property":"","dataset":"OpenStreetMap","license":"ODbL-1.0","record_id":"n11725249783@1","update_time":"2024-03-12T17:53:04Z","confidence":null,"between":null,"provider":"osm","resource":"planet","version":"2026-08-05"}],"version":1}},
{"id":"a461da91-64b0-4963-a139-e5c90aa2d1f5","type":"Feature","geometry":{"type":"Point","coordinates":[127.0821299,37.4023403]},"properties":{"sources":[{"property":"","dataset":"OpenStreetMap","license":"ODbL-1.0","record_id":"n9298517909@1","update_time":"2021-12-01T06:06:55Z","confidence":null,"between":null,"provider":"osm","resource":"planet","version":"2026-08-05"}],"version":1}},
{"id":"54309277-c31d-4e5f-9666-f6611f4be7c8","type":"Feature","geometry":{"type":"Point","coordinates":[127.0885946,37.4035496]},"properties":{"sources":[{"property":"","dataset":"OpenStreetMap","license":"ODbL-1.0","record_id":"n734789524@7","update_time":"2024-05-11T13:16:59Z","confidence":null,"between":null,"provider":"osm","resource":"planet","version":"2026-08-05"}],"version":1}},
{"id":"53267a6d-8429-44b2-a1df-e4290a3fd70b","type":"Feature","geometry":{"type":"Point","coordinates":[127.0854268,37.3986209]},"properties":{"sources":[{"property":"","dataset":"OpenStreetMap","license":"ODbL-1.0","record_id":"n1576486009@2","update_time":"2023-09-28T11:44:59Z","confidence":null,"between":null,"provider":"osm","resource":"planet","version":"2026-08-05"}],"version":1}},
{"id":"43c28b6b-54ee-45e9-bc70-3f86ce0bb687","type":"Feature","geometry":{"type":"Point","coordinates":[127.0817695,37.3996948]},"properties":{"sources":[{"property":"","dataset":"OpenStreetMap","license":"ODbL-1.0","record_id":"n9298528920@1","update_time":"2021-12-01T06:06:55Z","confidence":null,"between":null,"provider":"osm","resource":"planet","version":"2026-08-05"}],"version":1}},
{"id":"0ec1889d-7c1d-455e-9ad8-6f9dd6bf3a0a","type":"Feature","geometry":{"type":"Point","coordinates":[127.082463,37.4008951]},"properties":{"sources":[{"property":"","dataset":"OpenStreetMap","license":"ODbL-1.0","record_id":"n5133067906@4","update_time":"2021-02-24T05:35:23Z","confidence":null,"between":null,"provider":"osm","resource":"planet","version":"2026-08-05"}],"version":1}},
{"id":"4d7ddd8e-9812-4503-b450-f21cd0a16dc8","type":"Feature","geometry":{"type":"Point","coordinates":[127.0821172,37.4016236]},"properties":{"sources":[{"property":"","dataset":"OpenStreetMap","license":"ODbL-1.0","record_id":"n5133067903@4","update_time":"2021-02-24T05:35:23Z","confidence":null,"between":null,"provider":"osm","resource":"planet","version":"2026-08-05"}],"version":1}},
{"id":"9535cb01-74a9-4985-8f7b-bc9bc328a3f6","type":"Feature","geometry":{"type":"Point","coordinates":[127.0787298,37.4004339]},"properties":{"sources":[{"property":"","dataset":"OpenStreetMap","license":"ODbL-1.0","record_id":"n5004959054@9","update_time":"2026-07-01T09:51:13Z","confidence":null,"between":null,"provider":"osm","resource":"planet","version":"2026-08-05"}],"version":2}},
{"id":"826b0402-5f1b-4d21-bf68-6c899bd170eb","type":"Feature","geometry":{"type":"Point","coordinates":[127.0777175,37.406906]},"properties":{"sources":[{"property":"","dataset":"OpenStreetMap","license":"ODbL-1.0","record_id":"n10272595256@1","update_time":"2022-12-19T06:05:30Z","confidence":null,"between":null,"provider":"osm","resource":"planet","version":"2026-08-05"}],"version":1}},
{"id":"691c1463-e8ba-457b-affa-71e9b7ec4b43","type":"Feature","geometry":{"type":"Point","coordinates":[127.07966330000001,37.4084083]},"properties":{"sources":[{"property":"","dataset":"OpenStreetMap","license":"ODbL-1.0","record_id":"n9293751129@1","update_time":"2021-11-29T15:45:50Z","confidence":null,"between":null,"provider":"osm","resource":"planet","version":"2026-08-05"}],"version":1}},
{"id":"bcbc305e-df4f-4fc8-bf31-1275cf06391a","type":"Feature","geometry":{"type":"Point","coordinates":[127.0801492,37.4093704]},"properties":{"sources":[{"property":"","dataset":"OpenStreetMap","license":"ODbL-1.0","record_id":"n9293751120@1","update_time":"2021-11-29T15:45:50Z","confidence":null,"between":null,"provider":"osm","resource":"planet","version":"2026-08-05"}],"version":1}},
{"id":"c45f9208-bd95-4734-94f5-c2c0e739c66f","type":"Feature","geometry":{"type":"Point","coordinates":[127.0857964,37.4071618]},"properties":{"sources":[{"property":"","dataset":"OpenStreetMap","license":"ODbL-1.0","record_id":"n4309673304@2","update_time":"2026-05-06T12:12:03Z","confidence":null,"between":null,"provider":"osm","resource":"planet","version":"2026-08-05"}],"version":2}},
{"id":"d57ea1d8-f55c-491b-9374-d616b8c8ca2c","type":"Feature","geometry":{"type":"Point","coordinates":[127.0889901,37.4075277]},"properties":{"sources":[{"property":"","dataset":"OpenStreetMap","license":"ODbL-1.0","record_id":"n9327113447@1","update_time":"2021-12-10T12:11:22Z","confidence":null,"between":null,"provider":"osm","resource":"planet","version":"2026-08-05"}],"version":1}},
{"id":"51685fd7-0072-4b09-8f61-711abec7cd11","type":"Feature","geometry":{"type":"Point","coordinates":[127.0892573,37.407802]},"properties":{"sources":[{"property":"","dataset":"OpenStreetMap","license":"ODbL-1.0","record_id":"n12866838379@1","update_time":"2025-05-27T13:40:09Z","confidence":null,"between":null,"provider":"osm","resource":"planet","version":"2026-08-05"}],"version":1}},
{"id":"5eb3ee46-25b0-4db7-8b32-60f318d00a04","type":"Feature","geometry":{"type":"Point","coordinates":[127.0893638,37.4080269]},"properties":{"sources":[{"property":"","dataset":"OpenStreetMap","license":"ODbL-1.0","record_id":"n9327113446@1","update_time":"2021-12-10T12:11:22Z","confidence":null,"between":null,"provider":"osm","resource":"planet","version":"2026-08-05"}],"version":1}},
{"id":"bbd69dd0-c5cd-4cdb-9f62-25547b057b24","type":"Feature","geometry":{"type":"Point","coordinates":[127.0882716,37.4083055]},"properties":{"sources":[{"property":"","dataset":"OpenStreetMap","license":"ODbL-1.0","record_id":"n13953139487@1","update_time":"2026-06-20T00:16:43Z","confidence":null,"between":null,"provider":"osm","resource":"planet","version":"2026-08-05"}],"version":1}},
{"id":"8ebb4645-6581-4345-9580-8821d232902c","type":"Feature","geometry":{"type":"Point","coordinates":[127.0892129,37.408434]},"properties":{"sources":[{"property":"","dataset":"OpenStreetMap","license":"ODbL-1.0","record_id":"n12866838369@1","update_time":"2025-05-27T13:40:09Z","confidence":null,"between":null,"provider":"osm","resource":"planet","version":"2026-08-05"}],"version":1}},
{"id":"6374b56c-f37e-4f90-b335-691527b4df36","type":"Feature","geometry":{"type":"Point","coordinates":[127.0894644,37.408709]},"properties":{"sources":[{"property":"","dataset":"OpenStreetMap","license":"ODbL-1.0","record_id":"n4309669970@3","update_time":"2025-05-27T13:40:09Z","confidence":null,"between":null,"provider":"osm","resource":"planet","version":"2026-08-05"}],"version":1}},
{"id":"d9bf940a-d8eb-4bf7-b931-8390e895ce09","type":"Feature","geometry":{"type":"Point","coordinates":[127.0891324,37.4088993]},"properties":{"sources":[{"property":"","dataset":"OpenStreetMap","license":"ODbL-1.0","record_id":"n13953139485@1","update_time":"2026-06-20T00:16:43Z","confidence":null,"between":null,"provider":"osm","resource":"planet","version":"2026-08-05"}],"version":1}},
{"id":"53361faf-ead4-42b4-a513-aaba3dbb37a8","type":"Feature","geometry":{"type":"Point","coordinates":[127.0869909,37.4096941]},"properties":{"sources":[{"property":"","dataset":"OpenStreetMap","license":"ODbL-1.0","record_id":"n13953139489@1","update_time":"2026-06-20T00:16:43Z","confidence":null,"between":null,"provider":"osm","resource":"planet","version":"2026-08-05"}],"version":1}},
{"id":"4152f0a0-dd05-4fd9-8772-82f1934b7da3","type":"Feature","geometry":{"type":"Point","coordinates":[127.089584,37.4106239]},"properties":{"sources":[{"property":"","dataset":"OpenStreetMap","license":"ODbL-1.0","record_id":"n4309664511@8","update_time":"2025-11-24T05:52:23Z","confidence":null,"between":null,"provider":"osm","resource":"planet","version":"2026-08-05"}],"version":3}},
{"id":"b30ea1f3-0f5f-474b-95bb-092b3748b0e3","type":"Feature","geometry":{"type":"Point","coordinates":[127.0820288,37.4107381]},"properties":{"sources":[{"property":"","dataset":"OpenStreetMap","license":"ODbL-1.0","record_id":"n9293751135@1","update_time":"2021-11-29T15:45:50Z","confidence":null,"between":null,"provider":"osm","resource":"planet","version":"2026-08-05"}],"version":1}},
{"id":"53e4c8dd-1daa-45ea-8327-e82884cf5a8e","type":"Feature","geometry":{"type":"Point","coordinates":[127.080877,37.410467]},"properties":{"sources":[{"property":"","dataset":"OpenStreetMap","license":"ODbL-1.0","record_id":"n8548105390@2","update_time":"2021-11-29T15:45:50Z","confidence":null,"between":null,"provider":"osm","resource":"planet","version":"2026-08-05"}],"version":1}},
{"id":"3137d626-059f-4228-b769-b0a50fdf6ac8","type":"Feature","geometry":{"type":"Point","coordinates":[127.0815176,37.4101554]},"properties":{"sources":[{"property":"","dataset":"OpenStreetMap","license":"ODbL-1.0","record_id":"n9293741516@1","update_time":"2021-11-29T15:45:50Z","confidence":null,"between":null,"provider":"osm","resource":"planet","version":"2026-08-05"}],"version":1}},
{"id":"4e926672-dd73-4c4a-8466-d0a5b271c01f","type":"Feature","geometry":{"type":"Point","coordinates":[127.0809037,37.4096237]},"properties":{"sources":[{"property":"","dataset":"OpenStreetMap","license":"ODbL-1.0","record_id":"n9293741506@3","update_time":"2024-05-11T13:16:59Z","confidence":null,"between":null,"provider":"osm","resource":"planet","version":"2026-08-05"}],"version":1}},
{"id":"a78e1c73-3f55-4efa-a520-ba5e895abbb2","type":"Feature","geometry":{"type":"Point","coordinates":[127.0807511,37.4100744]},"properties":{"sources":[{"property":"","dataset":"OpenStreetMap","license":"ODbL-1.0","record_id":"n9293751122@1","update_time":"2021-11-29T15:45:50Z","confidence":null,"between":null,"provider":"osm","resource":"planet","version":"2026-08-05"}],"version":1}},
{"id":"e467f713-4af5-484a-84ab-0b89df27e67b","type":"Feature","geometry":{"type":"Point","coordinates":[127.0793006,37.4096313]},"properties":{"sources":[{"property":"","dataset":"OpenStreetMap","license":"ODbL-1.0","record_id":"n13013489687@1","update_time":"2025-07-20T12:49:37Z","confidence":null,"between":null,"provider":"osm","resource":"planet","version":"2026-08-05"}],"version":1}},
{"id":"8157aca5-1516-430d-aa61-53dc20ca4395","type":"Feature","geometry":{"type":"Point","coordinates":[127.0849672,37.4132796]},"properties":{"sources":[{"property":"","dataset":"OpenStreetMap","license":"ODbL-1.0","record_id":"n13478748244@1","update_time":"2026-01-23T10:07:54Z","confidence":null,"between":null,"provider":"osm","resource":"planet","version":"2026-08-05"}],"version":1}},
{"id":"27271374-ab3c-4f4c-abd0-5a6034bdcd22","type":"Feature","geometry":{"type":"Point","coordinates":[127.0855965,37.4148703]},"properties":{"sources":[{"property":"","dataset":"OpenStreetMap","license":"ODbL-1.0","record_id":"n10221468926@2","update_time":"2025-05-06T18:30:56Z","confidence":null,"between":null,"provider":"osm","resource":"planet","version":"2026-08-05"}],"version":1}},
{"id":"dca71141-4216-4436-ad74-93eaff0808ad","type":"Feature","geometry":{"type":"Point","coordinates":[127.0934083,37.4121608]},"properties":{"sources":[{"property":"","dataset":"OpenStreetMap","license":"ODbL-1.0","record_id":"n5850817409@1","update_time":"2018-08-23T07:03:55Z","confidence":null,"between":null,"provider":"osm","resource":"planet","version":"2026-08-05"}],"version":1}},
{"id":"e5cc4cdb-ec19-4b63-a4b7-7111ba4cad12","type":"Feature","geometry":{"type":"Point","coordinates":[127.0956288,37.4121233]},"properties":{"sources":[{"property":"","dataset":"OpenStreetMap","license":"ODbL-1.0","record_id":"n5850817399@1","update_time":"2018-08-23T07:03:54Z","confidence":null,"between":null,"provider":"osm","resource":"planet","version":"2026-08-05"}],"version":1}},
{"id":"06b484bf-88da-4a47-a92f-7d3342403188","type":"Feature","geometry":{"type":"Point","coordinates":[127.0974749,37.4127431]},"properties":{"sources":[{"property":"","dataset":"OpenStreetMap","license":"ODbL-1.0","record_id":"n13440056121@1","update_time":"2026-01-08T15:56:05Z","confidence":null,"between":null,"provider":"osm","resource":"planet","version":"2026-08-05"}],"version":1}},
{"id":"1744af19-cb82-42dd-bf13-83b9ebfb72f7","type":"Feature","geometry":{"type":"Point","coordinates":[127.097736,37.4127777]},"properties":{"sources":[{"property":"","dataset":"OpenStreetMap","license":"ODbL-1.0","record_id":"n4309686500@5","update_time":"2026-01-08T15:56:05Z","confidence":null,"between":null,"provider":"osm","resource":"planet","version":"2026-08-05"}],"version":1}},
{"id":"011d6fbd-fce9-4e79-8908-c7fda345d2cb","type":"Feature","geometry":{"type":"Point","coordinates":[127.0978296,37.4128738]},"properties":{"sources":[{"property":"","dataset":"OpenStreetMap","license":"ODbL-1.0","record_id":"n13440056137@1","update_time":"2026-01-08T15:56:05Z","confidence":null,"between":null,"provider":"osm","resource":"planet","version":"2026-08-05"}],"version":1}},
{"id":"97aa8ff3-ee30-4851-a299-3e461a5ddf42","type":"Feature","geometry":{"type":"Point","coordinates":[127.0977217,37.4128625]},"properties":{"sources":[{"property":"","dataset":"OpenStreetMap","license":"ODbL-1.0","record_id":"n13440056136@1","update_time":"2026-01-08T15:56:05Z","confidence":null,"between":null,"provider":"osm","resource":"planet","version":"2026-08-05"}],"version":1}},
{"id":"8d6d9e0d-bcbf-46c3-a115-7b79c6cdb488","type":"Feature","geometry":{"type":"Point","coordinates":[127.0976199,37.412862]},"properties":{"sources":[{"property":"","dataset":"OpenStreetMap","license":"ODbL-1.0","record_id":"n13440056135@1","update_time":"2026-01-08T15:56:05Z","confidence":null,"between":null,"provider":"osm","resource":"planet","version":"2026-08-05"}],"version":1}},
{"id":"ca3cd4e9-1201-4492-8355-5d9a8fa611f0","type":"Feature","geometry":{"type":"Point","coordinates":[127.0975502,37.4128634]},"properties":{"sources":[{"property":"","dataset":"OpenStreetMap","license":"ODbL-1.0","record_id":"n13440056132@1","update_time":"2026-01-08T15:56:05Z","confidence":null,"between":null,"provider":"osm","resource":"planet","version":"2026-08-05"}],"version":1}},
{"id":"0294a68b-2165-42cb-844d-2d2b1e6ffa31","type":"Feature","geometry":{"type":"Point","coordinates":[127.0977003,37.4129891]},"properties":{"sources":[{"property":"","dataset":"OpenStreetMap","license":"ODbL-1.0","record_id":"n13440056126@1","update_time":"2026-01-08T15:56:05Z","confidence":null,"between":null,"provider":"osm","resource":"planet","version":"2026-08-05"}],"version":1}},
{"id":"51b585b0-fd50-4a58-83c0-f58612293cf8","type":"Feature","geometry":{"type":"Point","coordinates":[127.097695,37.4130205]},"properties":{"sources":[{"property":"","dataset":"OpenStreetMap","license":"ODbL-1.0","record_id":"n13440056120@1","update_time":"2026-01-08T15:56:05Z","confidence":null,"between":null,"provider":"osm","resource":"planet","version":"2026-08-05"}],"version":1}},
{"id":"78fc90d5-8400-4811-aed5-2bf693fff663","type":"Feature","geometry":{"type":"Point","coordinates":[127.0978701,37.4128824]},"properties":{"sources":[{"property":"","dataset":"OpenStreetMap","license":"ODbL-1.0","record_id":"n13440056119@1","update_time":"2026-01-08T15:56:05Z","confidence":null,"between":null,"provider":"osm","resource":"planet","version":"2026-08-05"}],"version":1}},
{"id":"343b4ec1-916a-40c8-84d6-bb3032f93708","type":"Feature","geometry":{"type":"Point","coordinates":[127.097969,37.412779]},"properties":{"sources":[{"property":"","dataset":"OpenStreetMap","license":"ODbL-1.0","record_id":"n13440056131@1","update_time":"2026-01-08T15:56:05Z","confidence":null,"between":null,"provider":"osm","resource":"planet","version":"2026-08-05"}],"version":1}},
{"id":"68248591-b830-4615-be7f-22d5be037196","type":"Feature","geometry":{"type":"Point","coordinates":[127.0979736,37.4100021]},"properties":{"sources":[{"property":"","dataset":"OpenStreetMap","license":"ODbL-1.0","record_id":"n4313242475@1","update_time":"2016-07-20T17:09:02Z","confidence":null,"between":null,"provider":"osm","resource":"planet","version":"2026-08-05"}],"version":1}},
{"id":"f2569def-532e-4b90-a1bb-8401dda8c9a3","type":"Feature","geometry":{"type":"Point","coordinates":[127.0967275,37.4104358]},"properties":{"sources":[{"property":"","dataset":"OpenStreetMap","license":"ODbL-1.0","record_id":"n4313242485@1","update_time":"2016-07-20T17:09:03Z","confidence":null,"between":null,"provider":"osm","resource":"planet","version":"2026-08-05"}],"version":1}},
{"id":"000242cc-a8d8-45f4-8219-bfcc7ba1648e","type":"Feature","geometry":{"type":"Point","coordinates":[127.0972758,37.4100707]},"properties":{"sources":[{"property":"","dataset":"OpenStreetMap","license":"ODbL-1.0","record_id":"n4313242411@2","update_time":"2021-12-10T12:11:22Z","confidence":null,"between":null,"provider":"osm","resource":"planet","version":"2026-08-05"}],"version":1}},
{"id":"4d975edd-2848-4230-9fbf-b785e029a61f","type":"Feature","geometry":{"type":"Point","coordinates":[127.0972556,37.4098069]},"properties":{"sources":[{"property":"","dataset":"OpenStreetMap","license":"ODbL-1.0","record_id":"n4313242449@2","update_time":"2021-12-10T12:11:22Z","confidence":null,"between":null,"provider":"osm","resource":"planet","version":"2026-08-05"}],"version":1}},
{"id":"9fb0426b-1845-464a-8647-9bfedcfb8db7","type":"Feature","geometry":{"type":"Point","coordinates":[127.0961401,37.4099245]},"properties":{"sources":[{"property":"","dataset":"OpenStreetMap","license":"ODbL-1.0","record_id":"n4313242451@1","update_time":"2016-07-20T17:09:02Z","confidence":null,"between":null,"provider":"osm","resource":"planet","version":"2026-08-05"}],"version":1}},
{"id":"3b756dea-103d-4b96-ac60-aa1d6a132be1","type":"Feature","geometry":{"type":"Point","coordinates":[127.09542,37.4107835]},"properties":{"sources":[{"property":"","dataset":"OpenStreetMap","license":"ODbL-1.0","record_id":"n5850817455@1","update_time":"2018-08-23T07:03:55Z","confidence":null,"between":null,"provider":"osm","resource":"planet","version":"2026-08-05"}],"version":1}},
{"id":"b596d037-8b1d-42c3-b4ea-fda67266c93f","type":"Feature","geometry":{"type":"Point","coordinates":[127.0954583,37.4112236]},"properties":{"sources":[{"property":"","dataset":"OpenStreetMap","license":"ODbL-1.0","record_id":"n5850817454@1","update_time":"2018-08-23T07:03:55Z","confidence":null,"between":null,"provider":"osm","resource":"planet","version":"2026-08-05"}],"version":1}},
{"id":"5a88b593-ccd9-4ba3-b053-cc57e8e5ec44","type":"Feature","geometry":{"type":"Point","coordinates":[127.0960326,37.4111814]},"properties":{"sources":[{"property":"","dataset":"OpenStreetMap","license":"ODbL-1.0","record_id":"n5850817453@1","update_time":"2018-08-23T07:03:55Z","confidence":null,"between":null,"provider":"osm","resource":"planet","version":"2026-08-05"}],"version":1}},
{"id":"7115415d-c92a-4ea2-ab76-cfb532e0e636","type":"Feature","geometry":{"type":"Point","coordinates":[127.0971349,37.4113525]},"properties":{"sources":[{"property":"","dataset":"OpenStreetMap","license":"ODbL-1.0","record_id":"n4309664789@2","update_time":"2018-07-31T23:46:58Z","confidence":null,"between":null,"provider":"osm","resource":"planet","version":"2026-08-05"}],"version":1}},
{"id":"830ee9a7-511f-42bb-b391-6462acf6e5af","type":"Feature","geometry":{"type":"Point","coordinates":[127.0949249,37.4112749]},"properties":{"sources":[{"property":"","dataset":"OpenStreetMap","license":"ODbL-1.0","record_id":"n5785292434@2","update_time":"2018-08-23T07:03:57Z","confidence":null,"between":null,"provider":"osm","resource":"planet","version":"2026-08-05"}],"version":1}},
{"id":"29377b9d-2c48-4a82-8062-c0c6359191e1","type":"Feature","geometry":{"type":"Point","coordinates":[127.0897639,37.4107349]},"properties":{"sources":[{"property":"","dataset":"OpenStreetMap","license":"ODbL-1.0","record_id":"n4309664821@2","update_time":"2021-11-29T15:53:56Z","confidence":null,"between":null,"provider":"osm","resource":"planet","version":"2026-08-05"}],"version":1}},
{"id":"69fbf5b5-9f13-4d38-93a7-209a64b5b97c","type":"Feature","geometry":{"type":"Point","coordinates":[127.0914072,37.4101352]},"properties":{"sources":[{"property":"","dataset":"OpenStreetMap","license":"ODbL-1.0","record_id":"n4309664815@1","update_time":"2016-07-18T18:05:38Z","confidence":null,"between":null,"provider":"osm","resource":"planet","version":"2026-08-05"}],"version":1}},
{"id":"275a0276-3462-415b-924d-57be435819d0","type":"Feature","geometry":{"type":"Point","coordinates":[127.0929832,37.4097229]},"properties":{"sources":[{"property":"","dataset":"OpenStreetMap","license":"ODbL-1.0","record_id":"n4309636674@1","update_time":"2016-07-18T18:05:36Z","confidence":null,"between":null,"provider":"osm","resource":"planet","version":"2026-08-05"}],"version":1}},
{"id":"1d73eaea-4ab5-404c-9a83-0355b40b41d9","type":"Feature","geometry":{"type":"Point","coordinates":[127.0948509,37.4108037]},"properties":{"sources":[{"property":"","dataset":"OpenStreetMap","license":"ODbL-1.0","record_id":"n5785292092@2","update_time":"2018-08-23T07:03:56Z","confidence":null,"between":null,"provider":"osm","resource":"planet","version":"2026-08-05"}],"version":1}},
{"id":"6f73911a-4ced-4fa3-aa91-8b2eaf4c05ed","type":"Feature","geometry":{"type":"Point","coordinates":[127.0948709,37.4100471]},"properties":{"sources":[{"property":"","dataset":"OpenStreetMap","license":"ODbL-1.0","record_id":"n9327085882@2","update_time":"2022-08-14T02:55:30Z","confidence":null,"between":null,"provider":"osm","resource":"planet","version":"2026-08-05"}],"version":1}},
{"id":"9022afb2-0ee6-499c-b885-cd639ab7ba9c","type":"Feature","geometry":{"type":"Point","coordinates":[127.0941115,37.4091149]},"properties":{"sources":[{"property":"","dataset":"OpenStreetMap","license":"ODbL-1.0","record_id":"n9951891850@1","update_time":"2022-08-14T02:55:30Z","confidence":null,"between":null,"provider":"osm","resource":"planet","version":"2026-08-05"}],"version":1}},
{"id":"9b54b7f2-9b8f-4f27-b6b5-9e18f9b1fad0","type":"Feature","geometry":{"type":"Point","coordinates":[127.094729,37.4087417]},"properties":{"sources":[{"property":"","dataset":"OpenStreetMap","license":"ODbL-1.0","record_id":"n9951891846@1","update_time":"2022-08-14T02:55:30Z","confidence":null,"between":null,"provider":"osm","resource":"planet","version":"2026-08-05"}],"version":1}},
{"id":"7f8e48ca-ffed-49f0-be41-73f46d9a1c40","type":"Feature","geometry":{"type":"Point","coordinates":[127.0950185,37.4085578]},"properties":{"sources":[{"property":"","dataset":"OpenStreetMap","license":"ODbL-1.0","record_id":"n4309664555@3","update_time":"2021-12-10T12:11:22Z","confidence":null,"between":null,"provider":"osm","resource":"planet","version":"2026-08-05"}],"version":1}},
{"id":"14fdc2b5-cea6-47ea-8ba2-84db01784bb7","type":"Feature","geometry":{"type":"Point","coordinates":[127.0942543,37.4084565]},"properties":{"sources":[{"property":"","dataset":"OpenStreetMap","license":"ODbL-1.0","record_id":"n2891101351@2","update_time":"2021-12-10T12:11:22Z","confidence":null,"between":null,"provider":"osm","resource":"planet","version":"2026-08-05"}],"version":1}},
{"id":"b8842039-6583-484d-9ff6-f498cc2c71f7","type":"Feature","geometry":{"type":"Point","coordinates":[127.0942677,37.4087815]},"properties":{"sources":[{"property":"","dataset":"OpenStreetMap","license":"ODbL-1.0","record_id":"n4309664525@3","update_time":"2021-12-10T12:11:22Z","confidence":null,"between":null,"provider":"osm","resource":"planet","version":"2026-08-05"}],"version":1}},
{"id":"fbbae7af-9218-4b1d-8486-671ab6d00cc4","type":"Feature","geometry":{"type":"Point","coordinates":[127.0943996,37.4089592]},"properties":{"sources":[{"property":"","dataset":"OpenStreetMap","license":"ODbL-1.0","record_id":"n9951891848@1","update_time":"2022-08-14T02:55:30Z","confidence":null,"between":null,"provider":"osm","resource":"planet","version":"2026-08-05"}],"version":1}},
{"id":"a9157f35-14e5-4a08-afb2-490a916f6881","type":"Feature","geometry":{"type":"Point","coordinates":[127.093877,37.4088555]},"properties":{"sources":[{"property":"","dataset":"OpenStreetMap","license":"ODbL-1.0","record_id":"n9951891847@1","update_time":"2022-08-14T02:55:30Z","confidence":null,"between":null,"provider":"osm","resource":"planet","version":"2026-08-05"}],"version":1}},
{"id":"35ff2909-2184-4249-9a7c-c50cb5dd00ba","type":"Feature","geometry":{"type":"Point","coordinates":[127.0935254,37.4089111]},"properties":{"sources":[{"property":"","dataset":"OpenStreetMap","license":"ODbL-1.0","record_id":"n4309664548@1","update_time":"2016-07-18T18:05:37Z","confidence":null,"between":null,"provider":"osm","resource":"planet","version":"2026-08-05"}],"version":1}},
{"id":"2e5593de-df67-4507-9023-9273dc8f5592","type":"Feature","geometry":{"type":"Point","coordinates":[127.0935709,37.4088145]},"properties":{"sources":[{"property":"","dataset":"OpenStreetMap","license":"ODbL-1.0","record_id":"n4309664808@3","update_time":"2021-12-10T12:11:22Z","confidence":null,"between":null,"provider":"osm","resource":"planet","version":"2026-08-05"}],"version":1}},
{"id":"6b84c196-52d2-4112-a9fc-7ff158a9a9f2","type":"Feature","geometry":{"type":"Point","coordinates":[127.0929222,37.4087579]},"properties":{"sources":[{"property":"","dataset":"OpenStreetMap","license":"ODbL-1.0","record_id":"n4309664567@1","update_time":"2016-07-18T18:05:38Z","confidence":null,"between":null,"provider":"osm","resource":"planet","version":"2026-08-05"}],"version":1}},
{"id":"50176712-0ec7-43df-8348-df4844f4c928","type":"Feature","geometry":{"type":"Point","coordinates":[127.0924321,37.4094478]},"properties":{"sources":[{"property":"","dataset":"OpenStreetMap","license":"ODbL-1.0","record_id":"n4309664499@1","update_time":"2016-07-18T18:05:37Z","confidence":null,"between":null,"provider":"osm","resource":"planet","version":"2026-08-05"}],"version":1}},
{"id":"495f3d3c-541a-4488-98dc-aa062aeca70c","type":"Feature","geometry":{"type":"Point","coordinates":[127.0923192,37.4095432]},"properties":{"sources":[{"property":"","dataset":"OpenStreetMap","license":"ODbL-1.0","record_id":"n4309664557@1","update_time":"2016-07-18T18:05:37Z","confidence":null,"between":null,"provider":"osm","resource":"planet","version":"2026-08-05"}],"version":1}},
{"id":"0ac0698f-73c1-41f0-8041-174473b9be6c","type":"Feature","geometry":{"type":"Point","coordinates":[127.0899605,37.4085897]},"properties":{"sources":[{"property":"","dataset":"OpenStreetMap","license":"ODbL-1.0","record_id":"n9327085909@2","update_time":"2025-07-27T15:38:40Z","confidence":null,"between":null,"provider":"osm","resource":"planet","version":"2026-08-05"}],"version":1}},
{"id":"38243f2b-d28a-4ab3-9075-0653764e4a68","type":"Feature","geometry":{"type":"Point","coordinates":[127.0899191,37.4080066]},"properties":{"sources":[{"property":"","dataset":"OpenStreetMap","license":"ODbL-1.0","record_id":"n9327113424@1","update_time":"2021-12-10T12:11:22Z","confidence":null,"between":null,"provider":"osm","resource":"planet","version":"2026-08-05"}],"version":1}},
{"id":"74ade7cc-a533-40ff-8847-df07db32290f","type":"Feature","geometry":{"type":"Point","coordinates":[127.0936509,37.4082496]},"properties":{"sources":[{"property":"","dataset":"OpenStreetMap","license":"ODbL-1.0","record_id":"n4309636676@1","update_time":"2016-07-18T18:05:36Z","confidence":null,"between":null,"provider":"osm","resource":"planet","version":"2026-08-05"}],"version":1}},
{"id":"47c191e3-3db7-40f5-8efc-4c4f02dc3e39","type":"Feature","geometry":{"type":"Point","coordinates":[127.0961749,37.407665]},"properties":{"sources":[{"property":"","dataset":"OpenStreetMap","license":"ODbL-1.0","record_id":"n13801104254@1","update_time":"2026-05-06T12:12:03Z","confidence":null,"between":null,"provider":"osm","resource":"planet","version":"2026-08-05"}],"version":1}},
{"id":"30cd000a-12a0-4d51-b6d1-6a9603aa664f","type":"Feature","geometry":{"type":"Point","coordinates":[127.0973095,37.4078204]},"properties":{"sources":[{"property":"","dataset":"OpenStreetMap","license":"ODbL-1.0","record_id":"n13013531579@1","update_time":"2025-07-20T12:54:31Z","confidence":null,"between":null,"provider":"osm","resource":"planet","version":"2026-08-05"}],"version":1}},
{"id":"e960424b-c7a8-446f-826c-5f825bb7582a","type":"Feature","geometry":{"type":"Point","coordinates":[127.0973117,37.4079842]},"properties":{"sources":[{"property":"","dataset":"OpenStreetMap","license":"ODbL-1.0","record_id":"n9327113458@1","update_time":"2021-12-10T12:11:22Z","confidence":null,"between":null,"provider":"osm","resource":"planet","version":"2026-08-05"}],"version":1}},
{"id":"e62a5fab-0913-4fa5-bdd3-3f1882a3105d","type":"Feature","geometry":{"type":"Point","coordinates":[127.0975612,37.4082901]},"properties":{"sources":[{"property":"","dataset":"OpenStreetMap","license":"ODbL-1.0","record_id":"n13801104256@1","update_time":"2026-05-06T12:12:03Z","confidence":null,"between":null,"provider":"osm","resource":"planet","version":"2026-08-05"}],"version":1}},
{"id":"af823962-d3b7-431e-b52f-1dcf329b7a28","type":"Feature","geometry":{"type":"Point","coordinates":[127.0955893,37.4085976]},"properties":{"sources":[{"property":"","dataset":"OpenStreetMap","license":"ODbL-1.0","record_id":"n5850817388@2","update_time":"2026-05-06T12:12:03Z","confidence":null,"between":null,"provider":"osm","resource":"planet","version":"2026-08-05"}],"version":1}},
{"id":"a085d09e-3487-48fb-85dc-605cd15a57b8","type":"Feature","geometry":{"type":"Point","coordinates":[127.096192,37.4086471]},"properties":{"sources":[{"property":"","dataset":"OpenStreetMap","license":"ODbL-1.0","record_id":"n4313242459@1","update_time":"2016-07-20T17:09:02Z","confidence":null,"between":null,"provider":"osm","resource":"planet","version":"2026-08-05"}],"version":1}},
{"id":"6696e3b1-073b-48ff-8418-63ee5e01cc63","type":"Feature","geometry":{"type":"Point","coordinates":[127.0959778,37.408783]},"properties":{"sources":[{"property":"","dataset":"OpenStreetMap","license":"ODbL-1.0","record_id":"n4313242458@1","update_time":"2016-07-20T17:09:02Z","confidence":null,"between":null,"provider":"osm","resource":"planet","version":"2026-08-05"}],"version":1}},
{"id":"8c169247-124c-45ee-84d2-073ae6d6ade2","type":"Feature","geometry":{"type":"Point","coordinates":[127.0961953,37.4087945]},"properties":{"sources":[{"property":"","dataset":"OpenStreetMap","license":"ODbL-1.0","record_id":"n4313242454@1","update_time":"2016-07-20T17:09:02Z","confidence":null,"between":null,"provider":"osm","resource":"planet","version":"2026-08-05"}],"version":1}},
{"id":"0ce430d4-022b-4637-a5f4-d08593e47554","type":"Feature","geometry":{"type":"Point","coordinates":[127.0974632,37.4090048]},"properties":{"sources":[{"property":"","dataset":"OpenStreetMap","license":"ODbL-1.0","record_id":"n4313242487@1","update_time":"2016-07-20T17:09:03Z","confidence":null,"between":null,"provider":"osm","resource":"planet","version":"2026-08-05"}],"version":1}},
{"id":"c6fab614-a817-4455-a815-c91055e3bb66","type":"Feature","geometry":{"type":"Point","coordinates":[127.0972747,37.408809]},"properties":{"sources":[{"property":"","dataset":"OpenStreetMap","license":"ODbL-1.0","record_id":"n2891101346@3","update_time":"2026-05-06T12:12:03Z","confidence":null,"between":null,"provider":"osm","resource":"planet","version":"2026-08-05"}],"version":1}},
{"id":"5932fbe3-386d-4114-bce0-2a6d94d30fb2","type":"Feature","geometry":{"type":"Point","coordinates":[127.0968709,37.408709]},"properties":{"sources":[{"property":"","dataset":"OpenStreetMap","license":"ODbL-1.0","record_id":"n4313242400@1","update_time":"2016-07-20T17:09:01Z","confidence":null,"between":null,"provider":"osm","resource":"planet","version":"2026-08-05"}],"version":1}},
{"id":"b4fe8735-ce1e-4eb6-8548-4f038691832b","type":"Feature","geometry":{"type":"Point","coordinates":[127.0968635,37.4088022]},"properties":{"sources":[{"property":"","dataset":"OpenStreetMap","license":"ODbL-1.0","record_id":"n4313243205@1","update_time":"2016-07-20T17:09:03Z","confidence":null,"between":null,"provider":"osm","resource":"planet","version":"2026-08-05"}],"version":1}},
{"id":"9a463b21-1d03-46c6-8adb-ca68c7ad3c2a","type":"Feature","geometry":{"type":"Point","coordinates":[127.0978875,37.4095238]},"properties":{"sources":[{"property":"","dataset":"OpenStreetMap","license":"ODbL-1.0","record_id":"n4313242396@1","update_time":"2016-07-20T17:09:01Z","confidence":null,"between":null,"provider":"osm","resource":"planet","version":"2026-08-05"}],"version":1}},
{"id":"53eedda1-3447-4d39-b0c0-ca4ca9ac0e04","type":"Feature","geometry":{"type":"Point","coordinates":[127.0979135,37.4075533]},"properties":{"sources":[{"property":"","dataset":"OpenStreetMap","license":"ODbL-1.0","record_id":"n13801104264@1","update_time":"2026-05-06T12:12:03Z","confidence":null,"between":null,"provider":"osm","resource":"planet","version":"2026-08-05"}],"version":1}}]}